      2.10          N: GNSS NAV DATA                        RINEX VERSION / TYPE
fic2rin                                 08/19/2021 00:17:27 PGM / RUN BY / DATE
                                                            END OF HEADER
21 21  8 18 22  0  0.0 1.379665918648e-04 2.160049916711e-12 0.000000000000e+00
    1.200000000000e+01-3.928125000000e+01 4.554832584203e-09 2.157568319655e+00
   -2.190470695496e-06 2.404339704663e-02 6.183981895447e-07 5.153658060074e+03
    3.384000000000e+05 3.296881914139e-07 1.257001226804e+00 2.980232238770e-08
    9.577230564381e-01 3.629062500000e+02-1.097546005928e+00-8.077836474313e-09
   -1.782217093638e-10 1.000000000000e+00 2.171000000000e+03 0.000000000000e+00
    2.400000000000e+00 0.000000000000e+00-1.024454832077e-08 1.200000000000e+01
    3.312000000000e+05 4.000000000000e+00
20 21  8 18 22  0  0.0 5.195830017328e-04-2.273736754432e-13 0.000000000000e+00
    7.000000000000e+00-1.349687500000e+02 4.874131598574e-09 9.654250743552e-01
   -7.018446922302e-06 5.522052990273e-03 8.935108780861e-06 5.153644330978e+03
    3.384000000000e+05 6.519258022308e-08 2.231594427780e+00 8.381903171539e-08
    9.393669879713e-01 1.987187500000e+02 2.974282169739e+00-8.179626428559e-09
    8.393206753608e-11 1.000000000000e+00 2.171000000000e+03 0.000000000000e+00
    2.400000000000e+00 0.000000000000e+00-8.381903171539e-09 7.000000000000e+00
    3.312000000000e+05 4.000000000000e+00
24 21  8 18 22  0  0.0 2.121315337718e-04 1.080024958355e-11 0.000000000000e+00
    1.500000000000e+01 4.312500000000e+00 5.683093866528e-09 1.604686880964e-01
    3.315508365631e-07 1.139154878911e-02 5.517154932022e-06 5.153705638885e+03
    3.384000000000e+05 1.117587089539e-08-1.881406842844e+00 1.359730958939e-07
    9.344996005851e-01 2.557500000000e+02 7.496889504340e-01-8.651431795432e-09
   -3.821587755898e-10 1.000000000000e+00 2.171000000000e+03 0.000000000000e+00
    2.400000000000e+00 0.000000000000e+00 2.793967723846e-09 1.500000000000e+01
    3.312000000000e+05 4.000000000000e+00
31 21  8 18 22  0  0.0-1.350054517388e-04-2.046363078989e-12 0.000000000000e+00
    4.100000000000e+01-5.812500000000e+00 5.024852162405e-09-1.296126113564e+00
   -3.259629011154e-07 1.010467053857e-02 5.984678864479e-06 5.153580797195e+03
    3.384000000000e+05 9.126961231232e-08-1.784287917451e+00-1.452863216400e-07
    9.553233309713e-01 2.609687500000e+02 2.811171600810e-01-8.137481815924e-09
   -2.917978688382e-10 1.000000000000e+00 2.171000000000e+03 0.000000000000e+00
    2.400000000000e+00 0.000000000000e+00-1.303851604462e-08 4.100000000000e+01
    3.312000000000e+05 4.000000000000e+00
25 21  8 18 22  0  0.0 1.934375613928e-04 6.480149750132e-12 0.000000000000e+00
    3.000000000000e+01 7.012500000000e+01 4.194817588133e-09-1.740099512804e+00
    3.591179847717e-06 9.831675444730e-03 1.097656786442e-05 5.153588979721e+03
    3.384000000000e+05 1.899898052216e-07-7.645966854581e-01-1.024454832077e-07
    9.598985458217e-01 1.684687500000e+02 9.681281139419e-01-7.633532252973e-09
   -5.268076579392e-10 1.000000000000e+00 2.171000000000e+03 0.000000000000e+00
    2.400000000000e+00 0.000000000000e+00 5.587935447693e-09 3.000000000000e+01
    3.312000000000e+05 4.000000000000e+00
29 21  8 18 22  0  0.0-3.982894122601e-04-5.798028723802e-12 0.000000000000e+00
    8.500000000000e+01 1.210937500000e+02 3.842660062216e-09 2.068514666442e+00
    6.342306733131e-06 1.978161162697e-03 4.259869456291e-06 5.153597099304e+03
    3.384000000000e+05-4.470348358154e-08 3.585575536928e-01 3.725290298462e-08
    9.836546603878e-01 3.080312500000e+02 2.291901875324e+00-7.949259690002e-09
    2.532248335450e-10 1.000000000000e+00 2.171000000000e+03 0.000000000000e+00
    2.400000000000e+00 0.000000000000e+00-1.024454832077e-08 8.500000000000e+01
    3.312000000000e+05 4.000000000000e+00
16 21  8 18 22  0  0.0-3.759344108403e-04-6.252776074689e-12 0.000000000000e+00
    6.500000000000e+01 6.375000000000e+01 3.915520239992e-09 2.914291727765e+00
    3.203749656677e-06 1.218613807578e-02 1.077167689800e-05 5.153746459961e+03
    3.384000000000e+05 1.303851604462e-08-6.713881064438e-01-1.192092895508e-07
    9.726327151995e-01 1.766250000000e+02 6.782602767659e-01-7.482811689142e-09
   -3.807301446530e-10 1.000000000000e+00 2.171000000000e+03 0.000000000000e+00
    2.400000000000e+00 0.000000000000e+00-1.024454832077e-08 6.500000000000e+01
    3.312000000000e+05 4.000000000000e+00
12 21  8 18 22  0  0.0-8.481461554766e-05-5.343281372916e-12 0.000000000000e+00
    7.700000000000e+01 8.487500000000e+01 3.959807799032e-09-1.555860985044e+00
    4.308298230171e-06 8.238547132351e-03 1.107715070248e-05 5.153698612213e+03
    3.384000000000e+05 1.657754182816e-07-6.900896912913e-01 1.341104507446e-07
    9.725832539392e-01 1.725312500000e+02 1.228917079341e+00-7.608174053845e-09
   -5.146642949766e-10 1.000000000000e+00 2.171000000000e+03 0.000000000000e+00
    2.400000000000e+00 0.000000000000e+00-1.257285475731e-08 7.700000000000e+01
    3.312000000000e+05 4.000000000000e+00
10 21  8 18 22  0  0.0-1.852200366557e-04-7.730704965070e-12 0.000000000000e+00
    6.700000000000e+01-1.185312500000e+02 4.115528571141e-09-2.182108447130e+00
   -6.299465894699e-06 6.843642913736e-03 9.262934327126e-06 5.153679676056e+03
    3.384000000000e+05 8.568167686462e-08 2.377372927011e+00-6.705522537231e-08
    9.703250453158e-01 2.060625000000e+02-2.580400115428e+00-7.688534544039e-09
    2.264380034803e-10 1.000000000000e+00 2.171000000000e+03 0.000000000000e+00
    2.400000000000e+00 0.000000000000e+00 2.328306436539e-09 6.700000000000e+01
    3.312000000000e+05 4.000000000000e+00
30 21  8 18 22  0  0.0-4.636491648853e-04-4.092726157978e-12 0.000000000000e+00
    8.800000000000e+01 1.281250000000e+00 5.389510209019e-09-9.509352218804e-01
   -5.215406417847e-08 5.359946982935e-03 6.295740604401e-06 5.153652742386e+03
    3.384000000000e+05 1.266598701477e-07-1.785782598407e+00 7.450580596924e-09
    9.362330297722e-01 2.445312500000e+02-2.732995201409e+00-8.334275727466e-09
   -3.921591921473e-10 1.000000000000e+00 2.171000000000e+03 0.000000000000e+00
    2.400000000000e+00 0.000000000000e+00 3.725290298462e-09 8.800000000000e+01
    3.312000000000e+05 4.000000000000e+00
27 21  8 18 22  0  0.0-1.802667975426e-04-5.570655048359e-12 0.000000000000e+00
    6.800000000000e+01 1.138125000000e+02 4.026953453061e-09 1.977847211241e+00
    5.796551704407e-06 9.456692263484e-03 5.071982741356e-06 5.153693725586e+03
    3.384000000000e+05-2.160668373108e-07 2.846964129883e-01-2.048909664154e-08
    9.754964504856e-01 2.882187500000e+02 6.359854655189e-01-8.004261981068e-09
    1.932223342001e-10 1.000000000000e+00 2.171000000000e+03 0.000000000000e+00
    2.400000000000e+00 0.000000000000e+00 1.862645149231e-09 6.800000000000e+01
    3.312000000000e+05 4.000000000000e+00
15 21  8 18 22  0  0.0-1.274230889976e-04 2.728484105319e-12 0.000000000000e+00
    1.040000000000e+02-7.187500000000e+00 5.520229939735e-09 1.129956986695e+00
   -1.732259988785e-07 1.350288267713e-02 9.641051292419e-06 5.153661548615e+03
    3.384000000000e+05-1.993030309677e-07-2.975226873959e+00 1.695007085800e-07
    9.296640974984e-01 1.816562500000e+02 1.013539490308e+00-8.506782913082e-09
    4.746626287466e-10 1.000000000000e+00 2.171000000000e+03 0.000000000000e+00
    2.400000000000e+00 0.000000000000e+00-1.071020960808e-08 1.040000000000e+02
    3.312000000000e+05 4.000000000000e+00
22 21  8 18 22  0  0.0-5.349549464881e-04 9.436007530894e-12 0.000000000000e+00
    7.600000000000e+01-1.139687500000e+02 4.994136597264e-09 9.396945119226e-01
   -5.941838026047e-06 6.805151002482e-03 8.268281817436e-06 5.153764385223e+03
    3.384000000000e+05 1.005828380585e-07 2.277820751920e+00-1.695007085800e-07
    9.360893580506e-01 2.109375000000e+02-9.072724641798e-01-8.279987751868e-09
    1.442917246152e-10 1.000000000000e+00 2.171000000000e+03 0.000000000000e+00
    2.400000000000e+00 0.000000000000e+00-1.769512891769e-08 7.600000000000e+01
    3.312000000000e+05 4.000000000000e+00
32 21  8 18 22  0  0.0 6.714835762978e-06-2.842170943040e-12 0.000000000000e+00
    9.600000000000e+01 1.625000000000e+00 4.707338936704e-09 2.742732406088e+00
    7.636845111847e-08 5.069260951132e-03 8.879229426384e-06 5.153703193665e+03
    3.384000000000e+05-3.539025783539e-08-2.863598213571e+00-1.396983861923e-07
    9.578364501442e-01 2.057812500000e+02-2.368080850267e+00-7.828897533578e-09
    4.914490422538e-10 1.000000000000e+00 2.171000000000e+03 0.000000000000e+00
    2.400000000000e+00 0.000000000000e+00 4.656612873077e-10 9.600000000000e+01
    3.312000000000e+05 4.000000000000e+00
26 21  8 18 22  0  0.0 1.241876743734e-04 4.433786671143e-12 0.000000000000e+00
    6.200000000000e+01 4.553125000000e+01 4.696267046944e-09-2.409897134712e+00
    2.400949597359e-06 6.012414465658e-03 1.043081283569e-05 5.153610683441e+03
    3.384000000000e+05-2.980232238770e-08-8.082065294117e-01 1.117587089539e-08
    9.407590525392e-01 1.680312500000e+02 2.932011647768e-01-7.944616639458e-09
   -4.350181202508e-10 1.000000000000e+00 2.171000000000e+03 0.000000000000e+00
    2.400000000000e+00 0.000000000000e+00 6.984919309616e-09 6.200000000000e+01
    3.312000000000e+05 4.000000000000e+00
18 21  8 18 22  0  0.0 3.315112553537e-04-3.637978807092e-12 0.000000000000e+00
    5.400000000000e+01-7.046875000000e+01 4.447685263944e-09 1.376626934723e-01
   -3.635883331299e-06 1.835539354943e-03 1.098960638046e-06 5.153652563095e+03
    3.384000000000e+05 6.332993507385e-08 1.353534657271e+00 5.774199962616e-08
    9.686854301392e-01 3.618750000000e+02 2.906712426731e+00-8.384277810253e-09
   -2.928693420408e-11 1.000000000000e+00 2.171000000000e+03 0.000000000000e+00
    2.400000000000e+00 0.000000000000e+00-8.381903171539e-09 5.400000000000e+01
    3.312000000000e+05 4.000000000000e+00
